ONEWEB-0033             
1 45142U 20008M   25245.56687254  .00000637  00000+0  17881-2 0  9999
2 45142  87.8749  93.6509 0001456  83.8540 276.2753 13.10372989270540
ONEWEB-0035             
1 45143U 20008N   25245.59755602 -.00000432  00000+0 -12746-2 0  9996
2 45143  87.8742  93.6465 0001527  84.0918 276.0384 13.10369767270274
ONEWEB-0036             
1 45144U 20008P   25245.58760563  .00000045  00000+0  92108-4 0  9998
2 45144  87.8750  93.5943 0001960  82.4336 277.7014 13.10369685270706
ONEWEB-0038             
1 45145U 20008Q   25245.53005040  .00000595  00000+0  16418-2 0  9994
2 45145  87.8780  78.3759 0001791  24.6579 335.4635 13.11412853272626
ONEWEB-0039             
1 45146U 20008R   25245.57018967  .00000708  00000+0  19912-2 0  9999
2 45146  87.8748  93.6177 0002038  74.1519 285.9832 13.10372996270497
ONEWEB-0040             
1 45147U 20008S   25245.56355306  .00000631  00000+0  17703-2 0  9991
2 45147  87.8755  93.6490 0001670  81.1093 279.0224 13.10373817270199
ONEWEB-0043             
1 45149U 20008U   25245.56520315  .00000685  00000+0  19254-2 0  9999
2 45149  87.8752  93.6319 0002124  81.3638 278.7730 13.10373240270514
ONEWEB-0044             
1 45150U 20008V   25245.59340731 -.00000260  00000+0 -78248-3 0  9996
2 45150  87.8744  93.6174 0001924  81.7112 278.4234 13.10369507270814
